; Erzeugt mit deltaroboter-converter 0.1.0
; Quelle: haus.png (Modus: mittellinie)
; Zeichenflaeche: 200 x 200 mm, Ursprung = Mitte, Z = 0 auf dem Papier
; Striche: 27  Punkte: 187  Zeichenweg: 1094 mm  Leerweg: 818 mm
; Geschaetzte Dauer: 1 min 54 s
G21 ; Einheit mm
G90 ; absolute Koordinaten
G0 X0.00 Y0.00 Z30.00 F3000 ; Startposition
; Strich 1
G0 X-0.15 Y-19.79 Z10.00
G1 Z0.00 F600 ; Stift absetzen
G1 X16.62 Y-19.69 F1500
G1 X16.98 Y-19.84
G1 X17.23 Y-20.20
G1 X17.39 Y-20.97
G1 X17.39 Y-33.75
G1 X17.03 Y-34.67
G1 X16.11 Y-35.03
G1 X0.77 Y-35.03
G1 X-0.20 Y-34.77
G1 X-0.51 Y-34.26
G1 X-0.51 Y-20.45
G1 X-0.41 Y-20.05
G1 X-0.15 Y-19.79
G1 Z10.00 F600 ; Stift heben
; Strich 2
G0 X-31.19 Y-20.97 F3000
G1 Z0.00 F600 ; Stift absetzen
G1 X-31.19 Y-33.75 F1500
G1 X-31.55 Y-34.67
G1 X-32.47 Y-35.03
G1 X-47.81 Y-35.03
G1 X-48.78 Y-34.77
G1 X-49.09 Y-34.26
G1 X-49.09 Y-20.45
G1 X-48.99 Y-20.05
G1 X-48.73 Y-19.79
G1 X-31.96 Y-19.69
G1 X-31.60 Y-19.84
G1 X-31.35 Y-20.20
G1 X-31.19 Y-20.97
G1 Z10.00 F600 ; Stift heben
; Strich 3
G0 X-59.32 Y-4.35 F3000
G1 Z0.00 F600 ; Stift absetzen
G1 X-60.34 Y-3.58 F1500
G1 X-59.52 Y-1.64
G1 X-55.69 Y2.51
G1 X-52.72 Y5.42
G1 X-50.57 Y7.88
G1 X-47.61 Y10.79
G1 X-45.46 Y13.24
G1 X-42.49 Y16.16
G1 X-40.35 Y18.61
G1 X-37.38 Y21.53
G1 X-30.12 Y29.35
G1 X-22.04 Y37.64
G1 X-19.89 Y40.09
G1 X-17.34 Y42.65
G1 X-16.11 Y43.36
G1 X-15.60 Y43.36
G1 X-14.68 Y42.90
G1 X-11.81 Y40.09
G1 X-9.66 Y37.64
G1 X-6.70 Y34.72
G1 X-4.55 Y32.27
G1 X-1.59 Y29.35
G1 X5.68 Y21.53
G1 X8.64 Y18.61
G1 X10.79 Y16.16
G1 X18.87 Y7.87
G1 X21.02 Y5.42
G1 X23.98 Y2.51
G1 X26.13 Y0.05
G1 X27.56 Y-1.33
G1 X27.97 Y-2.05
G1 X28.38 Y-3.58
G1 X30.43 Y-4.40
G1 X35.28 Y-9.46
G1 Z10.00 F600 ; Stift heben
; Strich 4
G0 X28.38 Y-3.58 F3000
G1 Z0.00 F600 ; Stift absetzen
G1 X27.61 Y-4.35 F1500
G1 X-59.32 Y-4.35
G1 X-59.32 Y-80.03
G1 X-59.01 Y-80.64
G1 X-57.78 Y-81.15
G1 X-57.02 Y-82.07
G1 X-26.08 Y-82.07
G1 X-26.08 Y-41.16
G1 X-25.77 Y-40.45
G1 X-25.06 Y-40.14
G1 X-6.65 Y-40.14
G1 X-6.19 Y-40.30
G1 X-5.88 Y-40.65
G1 X-5.62 Y-41.68
G1 X-5.62 Y-82.07
G1 X-26.08 Y-82.07
G1 Z10.00 F600 ; Stift heben
; Strich 5
G0 X-5.62 Y-82.07 F3000
G1 Z0.00 F600 ; Stift absetzen
G1 X25.31 Y-82.07 F1500
G1 X26.18 Y-81.10
G1 X27.20 Y-80.64
G1 X27.61 Y-79.26
G1 X27.61 Y-4.35
G1 Z10.00 F600 ; Stift heben
; Strich 6
G0 X46.02 Y29.40 F3000
G1 Z0.00 F600 ; Stift absetzen
G1 X50.37 Y36.56 F1500
G1 Z10.00 F600 ; Stift heben
; Strich 7
G0 X52.67 Y41.47 F3000
G1 Z0.00 F600 ; Stift absetzen
G1 X50.68 Y43.01 F1500
G1 X49.14 Y44.54
G1 X48.12 Y45.87
G1 X47.25 Y47.30
G1 X46.18 Y49.86
G1 X45.72 Y51.65
G1 X45.51 Y52.67
G1 X45.51 Y56.25
G1 X45.72 Y57.27
G1 X46.18 Y59.06
G1 X46.69 Y60.34
G1 X48.12 Y63.05
G1 X49.65 Y64.89
G1 X50.93 Y66.17
G1 X52.26 Y67.19
G1 X54.46 Y68.42
G1 X56.25 Y69.14
G1 X58.55 Y69.70
G1 X62.64 Y69.80
G1 X63.66 Y69.60
G1 X66.07 Y68.88
G1 X68.01 Y68.06
G1 X69.55 Y67.14
G1 X70.77 Y66.17
G1 X72.31 Y64.64
G1 X73.59 Y63.05
G1 X74.76 Y60.95
G1 X75.48 Y59.06
G1 X75.94 Y56.76
G1 X76.19 Y54.20
G1 X75.53 Y49.86
G1 X74.15 Y46.79
G1 X72.31 Y44.28
G1 X70.31 Y42.39
G1 X68.01 Y40.86
G1 X65.45 Y39.78
G1 X61.11 Y39.12
G1 X58.55 Y39.37
G1 X55.64 Y40.04
G1 X52.67 Y41.47
G1 Z10.00 F600 ; Stift heben
; Strich 8
G0 X42.70 Y44.23 F3000
G1 Z0.00 F600 ; Stift absetzen
G1 X39.89 Y42.49 F1500
G1 X35.54 Y40.14
G1 Z10.00 F600 ; Stift heben
; Strich 9
G0 X31.70 Y54.46 F3000
G1 Z0.00 F600 ; Stift absetzen
G1 X40.14 Y54.46 F1500
G1 Z10.00 F600 ; Stift heben
; Strich 10
G0 X42.70 Y64.94 F3000
G1 Z0.00 F600 ; Stift absetzen
G1 X35.54 Y69.29 F1500
G1 Z10.00 F600 ; Stift heben
; Strich 11
G0 X46.02 Y79.77 F3000
G1 Z0.00 F600 ; Stift absetzen
G1 X50.37 Y72.61 F1500
G1 Z10.00 F600 ; Stift heben
; Strich 12
G0 X60.85 Y75.17 F3000
G1 Z0.00 F600 ; Stift absetzen
G1 X60.85 Y83.61 F1500
G1 Z10.00 F600 ; Stift heben
; Strich 13
G0 X75.17 Y79.77 F3000
G1 Z0.00 F600 ; Stift absetzen
G1 X73.84 Y77.22 F1500
G1 X71.08 Y72.61
G1 Z10.00 F600 ; Stift heben
; Strich 14
G0 X78.75 Y65.20 F3000
G1 Z0.00 F600 ; Stift absetzen
G1 X81.31 Y66.53 F1500
G1 X85.91 Y69.29
G1 Z10.00 F600 ; Stift heben
; Strich 15
G0 X90.00 Y54.46 F3000
G1 Z0.00 F600 ; Stift absetzen
G1 X81.56 Y54.46 F1500
G1 Z10.00 F600 ; Stift heben
; Strich 16
G0 X78.75 Y44.23 F3000
G1 Z0.00 F600 ; Stift absetzen
G1 X79.77 Y43.52 F1500
G1 X85.14 Y40.45
G1 X85.91 Y40.14
G1 Z10.00 F600 ; Stift heben
; Strich 17
G0 X75.17 Y29.40 F3000
G1 Z0.00 F600 ; Stift absetzen
G1 X73.84 Y31.96 F1500
G1 X71.08 Y36.56
G1 Z10.00 F600 ; Stift heben
; Strich 18
G0 X60.85 Y33.75 F3000
G1 Z0.00 F600 ; Stift absetzen
G1 X60.85 Y25.31 F1500
G1 Z10.00 F600 ; Stift heben
; Strich 19
G0 X-41.16 Y54.46 F3000
G1 Z0.00 F600 ; Stift absetzen
G1 X-48.58 Y54.46 F1500
G1 X-50.06 Y54.77
G1 X-50.42 Y55.02
G1 X-50.62 Y55.74
G1 X-50.62 Y71.08
G1 Z10.00 F600 ; Stift heben
; Strich 20
G0 X-55.23 Y71.59 F3000
G1 Z0.00 F600 ; Stift absetzen
G1 X-60.34 Y71.59 F1500
G1 X-65.45 Y71.59
G1 Z10.00 F600 ; Stift heben
; Strich 21
G0 X-70.06 Y71.08 F3000
G1 Z0.00 F600 ; Stift absetzen
G1 X-70.06 Y63.41 F1500
G1 X-81.56 Y63.41
G1 X-81.56 Y71.08
G1 Z10.00 F600 ; Stift heben
; Strich 22
G0 X-81.56 Y63.41 F3000
G1 Z0.00 F600 ; Stift absetzen
G1 X-81.56 Y54.97 F1500
G1 Z10.00 F600 ; Stift heben
; Strich 23
G0 X-70.06 Y54.97 F3000
G1 Z0.00 F600 ; Stift absetzen
G1 X-70.06 Y63.41 F1500
G1 Z10.00 F600 ; Stift heben
; Strich 24
G0 X-60.34 Y71.59 F3000
G1 Z0.00 F600 ; Stift absetzen
G1 X-60.34 Y54.97 F1500
G1 Z10.00 F600 ; Stift heben
; Strich 25
G0 X-60.34 Y-3.58 F3000
G1 Z0.00 F600 ; Stift absetzen
G1 X-62.13 Y-4.40 F1500
G1 X-66.99 Y-9.46
G1 Z10.00 F600 ; Stift heben
; Strich 26
G0 X-57.02 Y-82.07 F3000
G1 Z0.00 F600 ; Stift absetzen
G1 X-58.14 Y-83.30 F1500
G1 X-59.06 Y-83.61
G1 X-90.00 Y-83.61
G1 Z10.00 F600 ; Stift heben
; Strich 27
G0 X25.31 Y-82.07 F3000
G1 Z0.00 F600 ; Stift absetzen
G1 X26.59 Y-83.30 F1500
G1 X27.36 Y-83.61
G1 X83.10 Y-83.61
G1 Z10.00 F600 ; Stift heben
G0 X0.00 Y0.00 Z30.00 F3000 ; Endposition
; Ende der Zeichnung
