; Erzeugt mit deltaroboter-converter 0.1.0
; Quelle: stern.svg
; Zeichenflaeche: 210 x 297 mm, Ursprung = Mitte, Z = 0 auf dem Papier
; Striche: 4  Punkte: 161  Zeichenweg: 1832 mm  Leerweg: 327 mm
; Geschaetzte Dauer: 3 min 36 s
G21 ; Einheit mm
G90 ; absolute Koordinaten
G0 X0.00 Y0.00 Z50.00 F1200 ; Startposition
; Strich 1
G0 X0.00 Y-15.56 Z10.00
G1 Z0.00 F300 ; Stift absetzen
G1 X-37.78 Y-40.00 F600
G1 X-24.44 Y0.00
G1 X-57.78 Y26.67
G1 X-15.56 Y26.67
G1 X0.00 Y66.67
G1 X15.56 Y26.67
G1 X57.78 Y26.67
G1 X24.44 Y0.00
G1 X37.78 Y-40.00
G1 X0.00 Y-15.56
G1 Z10.00 F300 ; Stift heben
; Strich 2
G0 X0.00 Y-55.56 F1200
G1 Z0.00 F300 ; Stift absetzen
G1 X-6.49 Y-55.24 F600
G1 X-13.06 Y-54.26
G1 X-19.36 Y-52.68
G1 X-25.48 Y-50.49
G1 X-31.48 Y-47.65
G1 X-37.05 Y-44.31
G1 X-42.27 Y-40.44
G1 X-47.19 Y-35.98
G1 X-51.64 Y-31.05
G1 X-55.50 Y-25.82
G1 X-58.83 Y-20.25
G1 X-61.61 Y-14.37
G1 X-63.79 Y-8.25
G1 X-65.38 Y-1.95
G1 X-66.35 Y4.62
G1 X-66.67 Y11.11
G1 X-66.34 Y17.74
G1 X-65.38 Y24.17
G1 X-63.79 Y30.47
G1 X-61.61 Y36.59
G1 X-58.83 Y42.47
G1 X-55.42 Y48.16
G1 X-51.55 Y53.38
G1 X-47.19 Y58.20
G1 X-42.38 Y62.57
G1 X-37.05 Y66.53
G1 X-31.36 Y69.94
G1 X-25.48 Y72.72
G1 X-19.36 Y74.90
G1 X-12.92 Y76.51
G1 X-6.49 Y77.46
G1 X-0.00 Y77.78
G1 X6.49 Y77.46
G1 X12.92 Y76.51
G1 X19.36 Y74.90
G1 X25.48 Y72.72
G1 X31.36 Y69.94
G1 X37.05 Y66.53
G1 X42.38 Y62.57
G1 X47.19 Y58.20
G1 X51.64 Y53.27
G1 X55.50 Y48.05
G1 X58.83 Y42.47
G1 X61.61 Y36.59
G1 X63.79 Y30.47
G1 X65.38 Y24.17
G1 X66.35 Y17.60
G1 X66.67 Y11.11
G1 X66.35 Y4.62
G1 X65.38 Y-1.95
G1 X63.79 Y-8.25
G1 X61.61 Y-14.37
G1 X58.83 Y-20.25
G1 X55.50 Y-25.82
G1 X51.64 Y-31.05
G1 X47.19 Y-35.98
G1 X42.27 Y-40.44
G1 X37.05 Y-44.31
G1 X31.48 Y-47.65
G1 X25.48 Y-50.49
G1 X19.36 Y-52.68
G1 X13.06 Y-54.26
G1 X6.49 Y-55.24
G1 X0.00 Y-55.56
G1 Z10.00 F300 ; Stift heben
; Strich 3
G0 X-88.89 Y-77.78 F1200
G1 Z0.00 F300 ; Stift absetzen
G1 X-86.04 Y-75.17 F600
G1 X-83.19 Y-73.02
G1 X-80.34 Y-71.30
G1 X-77.36 Y-69.93
G1 X-74.25 Y-68.94
G1 X-71.14 Y-68.36
G1 X-67.90 Y-68.16
G1 X-64.41 Y-68.34
G1 X-61.56 Y-68.77
G1 X-58.58 Y-69.46
G1 X-55.34 Y-70.44
G1 X-51.97 Y-71.68
G1 X-45.62 Y-74.47
G1 X-29.82 Y-82.16
G1 X-25.42 Y-84.02
G1 X-21.40 Y-85.45
G1 X-17.00 Y-86.63
G1 X-12.98 Y-87.25
G1 X-9.10 Y-87.39
G1 X-5.47 Y-87.02
G1 X-2.62 Y-86.37
G1 X0.10 Y-85.42
G1 X2.82 Y-84.12
G1 X5.54 Y-82.45
G1 X8.91 Y-79.84
G1 X16.34 Y-72.82
G1 X22.42 Y-67.73
G1 X28.72 Y-63.19
G1 X35.07 Y-59.40
G1 X41.14 Y-56.51
G1 X47.04 Y-54.45
G1 X52.75 Y-53.21
G1 X55.51 Y-52.89
G1 X58.33 Y-52.78
G1 X60.96 Y-52.88
G1 X63.52 Y-53.19
G1 X66.00 Y-53.70
G1 X68.40 Y-54.41
G1 X70.71 Y-55.33
G1 X72.94 Y-56.46
G1 X75.07 Y-57.79
G1 X77.01 Y-59.25
G1 X78.94 Y-60.98
G1 X80.68 Y-62.82
G1 X83.87 Y-67.06
G1 X86.61 Y-72.05
G1 X88.89 Y-77.78
G1 Z10.00 F300 ; Stift heben
; Strich 4
G0 X100.00 Y-86.67 F1200
G1 Z0.00 F300 ; Stift absetzen
G1 X99.73 Y-89.32 F600
G1 X98.89 Y-92.00
G1 X97.58 Y-94.32
G1 X95.74 Y-96.44
G1 X93.85 Y-97.90
G1 X91.74 Y-99.00
G1 X89.32 Y-99.73
G1 X86.95 Y-100.00
G1 X-86.67 Y-100.00
G1 X-89.32 Y-99.73
G1 X-92.00 Y-98.89
G1 X-94.32 Y-97.58
G1 X-96.44 Y-95.74
G1 X-97.90 Y-93.85
G1 X-99.00 Y-91.74
G1 X-99.73 Y-89.32
G1 X-100.00 Y-86.95
G1 X-99.98 Y87.37
G1 X-99.61 Y89.87
G1 X-98.77 Y92.25
G1 X-97.50 Y94.44
G1 X-95.84 Y96.34
G1 X-93.85 Y97.90
G1 X-91.61 Y99.05
G1 X-89.18 Y99.76
G1 X-86.67 Y100.00
G1 X86.95 Y100.00
G1 X89.59 Y99.67
G1 X92.12 Y98.83
G1 X94.44 Y97.50
G1 X96.44 Y95.74
G1 X97.90 Y93.85
G1 X99.00 Y91.74
G1 X99.73 Y89.32
G1 X100.00 Y86.95
G1 X100.00 Y-86.67
G1 Z10.00 F300 ; Stift heben
G0 X0.00 Y0.00 Z50.00 F1200 ; Endposition
; Ende der Zeichnung
